GUOWANG OBJECT A        
1 69572U 26137A   26193.89246529 -.00000143  00000+0  24502-5 0  9990
2 69572  49.9997 153.0717 0012495 311.3863  48.5960 13.89812741  3591
GUOWANG OBJECT B        
1 69573U 26137B   26190.65385973 -.00000214  00000+0 -55136-4 0  9995
2 69573  50.0016 165.9303 0011859 298.8434  61.1273 13.89803849  3155
GUOWANG OBJECT C        
1 69574U 26137C   26193.88847439 -.00000180  00000+0 -27480-4 0  9997
2 69574  49.9967 153.0345 0011896 311.4365  48.5511 13.89814739  3602
GUOWANG OBJECT D        
1 69575U 26137D   26197.63232185 -.00000205  00000+0 -52974-4 0  9995
2 69575  49.9997 138.1865 0000547 308.4892  51.5955 13.85253720  4126
GUOWANG OBJECT E        
1 69576U 26137E   26193.02348711 -.00000204  00000+0 -46563-4 0  9994
2 69576  50.0038 156.4799 0011224 310.0552  49.9361 13.89824941  3484
GUOWANG OBJECT F        
1 69577U 26137F   26192.30363530 -.00000204  00000+0 -46815-4 0  9991
2 69577  50.0028 159.3340 0010834 307.7048  52.2867 13.89809360  3382
GUOWANG OBJECT G        
1 69578U 26137G   26192.30278168 -.00000142  00000+0  35461-5 0  9990
2 69578  49.9952 159.3085 0010806 307.5258  52.4657 13.89795025  3383
GUOWANG OBJECT H        
1 69579U 26137H   26191.00768142 -.00000175  00000+0 -23862-4 0  9991
2 69579  50.0012 164.4679 0010249 306.3680  53.6272 13.89776278  3203
GUOWANG OBJECT J        
1 69580U 26137J   26178.27848690  .00000022  00000+0  13174-3 0  9997
2 69580  49.9961 215.0979 0011832 257.3150 102.6427 13.91997107  1436
CENTISPACE-1 GROUP 05 O*
1 69582U 26138A   26201.89736362  .00000270  00000+0  21595-3 0  9998
2 69582  55.1404 156.7034 0011966 356.6360   3.4532 14.15475187  4799
CENTISPACE-1 GROUP 05 O*
1 69583U 26138B   26201.89304757  .00000194  00000+0  17664-3 0  9995
2 69583  55.1392 156.6792 0010947 357.1897   2.9014 14.15653441  4795
CENTISPACE-1 GROUP 05 O*
1 69584U 26138C   26201.89103488  .00000129  00000+0  14330-3 0  9999
2 69584  55.1398 156.6774 0010890 358.9632   1.1318 14.15736067  4799
CENTISPACE-1 GROUP 05 O*
1 69585U 26138D   26201.25142650 -.00000020  00000+0  67300-4 0  9991
2 69585  55.1392 158.9942 0010416 356.9650   3.1259 14.15919543  4707
CENTISPACE-1 GROUP 05 O*
1 69587U 26138F   26201.81627377  .00000029  00000+0  92106-4 0  9999
2 69587  55.1388 156.9166 0010123   2.4796 357.6227 14.15910316  4788
KUIPER-00423            
1 69592U 26140A   26201.37891334  .00016485  00000+0  43451-3 0  9996
2 69592  51.8792 237.9442 0013202 289.5860  70.3702 15.38560785  6342
KUIPER-00428            
1 69593U 26140B   26201.81294214  .00013201  00000+0  36847-3 0  9994
2 69593  51.8796 236.3415 0008122  48.9308 311.2380 15.37029240  6400
KUIPER-00481            
1 69594U 26140C   26201.58696149  .00004324  00000+0  12450-3 0  9992
2 69594  51.8786 237.0855 0010893 310.2671  49.7363 15.37897687  6370
KUIPER-00490            
1 69595U 26140D   26201.79173019  .00016527  00000+0  44485-3 0  9993
2 69595  51.8758 236.1933 0007350 358.5273   1.5691 15.37966683  6401
KUIPER-00496            
1 69597U 26140F   26201.46194499  .00004563  00000+0  14757-3 0  9990
2 69597  51.8772 238.4717 0010979  68.8851 291.3307 15.34039227  6346
KUIPER-00513            
1 69598U 26140G   26201.46281296  .00011412  00000+0  30799-3 0  9998
2 69598  51.8789 237.7530 0007838 356.1197   3.9728 15.38226965  6352
KUIPER-00516            
1 69599U 26140H   26201.40804412  .00007293  00000+0  20439-3 0  9996
2 69599  51.8781 238.1256 0007396  13.1130 347.0048 15.37661206  6347
KUIPER-00517            
1 69600U 26140J   26201.44558600  .00016247  00000+0  42506-3 0  9996
2 69600  51.8759 237.6291 0010604 312.3615  47.6473 15.38832216  6354
KUIPER-00520            
1 69601U 26140K   26201.47372425  .00014325  00000+0  39019-3 0  9999
2 69601  51.8797 237.8292 0006918  12.7706 347.3455 15.37720467  6358
